0 THOR ABLESTAR DEB
1 00516U 61015FT  13282.54249652  .00000199  00000-0  22175-3 0  1911
2 00516 065.9973 322.3851 0074704 118.6296 042.6133 13.90327569644257
0 THOR ABLESTAR DEB
1 00516U 61015FT  13287.19949431  .00000206  00000-0  22726-3 0  1932
2 00516 065.9966 310.6522 0074559 115.8180 312.0392 13.90330123644906
0 THOR ABLESTAR DEB
1 00516U 61015FT  13289.52033660  .00000191  00000-0  21545-3 0  1941
2 00516 065.9966 304.8048 0074461 114.3954 048.4681 13.90332292645225
0 THOR ABLESTAR DEB
1 00516U 61015FT  13291.80099612  .00000245  00000-0  25826-3 0  1951
2 00516 065.9968 299.0585 0074398 113.0316 303.7557 13.90333104645542
0 THOR ABLESTAR DEB
1 00516U 61015FT  13293.81583543  .00000272  00000-0  27968-3 0  1965
2 00516 065.9969 293.9822 0074333 111.8011 308.5762 13.90334391645828
0 THOR ABLESTAR DEB
1 00516U 61015FT  13295.83153600  .00000321  00000-0  31800-3 0  1972
2 00516 065.9968 288.9039 0074277 110.5430 317.7451 13.90335565646102
